{
  "type": "FeatureCollection",
  "features": [
    {
      "type": "Feature",
      "properties": {
        "norad_id": 33886,
        "name": "IRIDIUM 33 DEB",
        "group": "iridium-33-debris",
        "lat": -71.99323550327361,
        "lon": -97.69502056556979,
        "alt_km": 771.1869528945417,
        "timestamp": "2025-12-03T13:52:09.951233+00:00",
        "meta_object_name": "IRIDIUM 33 DEB",
        "meta_object_id": "1997-051BF",
        "meta_epoch": "2025-12-03T07:58:37.157664",
        "meta_mean_motion": 14.36032893,
        "meta_eccentricity": 0.00120623,
        "meta_inclination": 86.3832,
        "meta_ra_of_asc_node": 71.1878,
        "meta_arg_of_pericenter": 277.8221,
        "meta_mean_anomaly": 146.0866,
        "meta_ephemeris_type": 0,
        "meta_classification_type": "U",
        "meta_norad_cat_id": 33886,
        "meta_element_set_no": 999,
        "meta_rev_at_epoch": 87917,
        "meta_bstar": 0.00031821928,
        "meta_mean_motion_dot": 9.45e-06,
        "meta_mean_motion_ddot": 0,
        "tle_line1": "1 33886U 97051BF  25337.33237451  .00000945  00000+0  31822-3 0  9994",
        "tle_line2": "2 33886  86.3832  71.1878 0012062 277.8221 146.0866 14.36032893879174"
      },
      "geometry": {
        "type": "Point",
        "coordinates": [
          -97.69502056556979,
          -71.99323550327361
        ]
      }
    },
    {
      "type": "Feature",
      "properties": {
        "norad_id": 33887,
        "name": "IRIDIUM 33 DEB",
        "group": "iridium-33-debris",
        "lat": 29.856815672429413,
        "lon": -174.78532018380415,
        "alt_km": 767.789522810288,
        "timestamp": "2025-12-03T13:52:09.951244+00:00",
        "meta_object_name": "IRIDIUM 33 DEB",
        "meta_object_id": "1997-051BG",
        "meta_epoch": "2025-12-03T08:13:03.825696",
        "meta_mean_motion": 14.37207474,
        "meta_eccentricity": 0.00040333,
        "meta_inclination": 86.3052,
        "meta_ra_of_asc_node": 7.4418,
        "meta_arg_of_pericenter": 271.7393,
        "meta_mean_anomaly": 100.6476,
        "meta_ephemeris_type": 0,
        "meta_classification_type": "U",
        "meta_norad_cat_id": 33887,
        "meta_element_set_no": 999,
        "meta_rev_at_epoch": 88030,
        "meta_bstar": 0.00021392763,
        "meta_mean_motion_dot": 6.56e-06,
        "meta_mean_motion_ddot": 0,
        "tle_line1": "1 33887U 97051BG  25337.34240539  .00000656  00000+0  21393-3 0  9998",
        "tle_line2": "2 33887  86.3052   7.4418 0004033 271.7393 100.6476 14.37207474880303"
      },
      "geometry": {
        "type": "Point",
        "coordinates": [
          -174.78532018380415,
          29.856815672429413
        ]
      }
    },
    {
      "type": "Feature",
      "properties": {
        "norad_id": 33953,
        "name": "IRIDIUM 33 DEB",
        "group": "iridium-33-debris",
        "lat": 48.271730163272984,
        "lon": -126.30945109039712,
        "alt_km": 691.5296138802187,
        "timestamp": "2025-12-03T13:52:09.951255+00:00",
        "meta_object_name": "IRIDIUM 33 DEB",
        "meta_object_id": "1997-051BN",
        "meta_epoch": "2025-12-03T05:09:00.716832",
        "meta_mean_motion": 14.55157442,
        "meta_eccentricity": 0.00184494,
        "meta_inclination": 86.3853,
        "meta_ra_of_asc_node": 57.9126,
        "meta_arg_of_pericenter": 131.9523,
        "meta_mean_anomaly": 257.615,
        "meta_ephemeris_type": 0,
        "meta_classification_type": "U",
        "meta_norad_cat_id": 33953,
        "meta_element_set_no": 999,
        "meta_rev_at_epoch": 88165,
        "meta_bstar": 0.0017324452,
        "meta_mean_motion_dot": 7.523e-05,
        "meta_mean_motion_ddot": 0,
        "tle_line1": "1 33953U 97051BN  25337.21459163  .00007523  00000+0  17324-2 0  9991",
        "tle_line2": "2 33953  86.3853  57.9126 0018449 131.9523 257.6150 14.55157442881650"
      },
      "geometry": {
        "type": "Point",
        "coordinates": [
          -126.30945109039712,
          48.271730163272984
        ]
      }
    },
    {
      "type": "Feature",
      "properties": {
        "norad_id": 33960,
        "name": "IRIDIUM 33 DEB",
        "group": "iridium-33-debris",
        "lat": 41.96259507279666,
        "lon": -62.79032236733515,
        "alt_km": 608.0299751918637,
        "timestamp": "2025-12-03T13:52:09.951266+00:00",
        "meta_object_name": "IRIDIUM 33 DEB",
        "meta_object_id": "1997-051BV",
        "meta_epoch": "2025-12-03T07:47:15.987840",
        "meta_mean_motion": 14.84371452,
        "meta_eccentricity": 0.00070258,
        "meta_inclination": 86.2527,
        "meta_ra_of_asc_node": 293.9503,
        "meta_arg_of_pericenter": 74.7434,
        "meta_mean_anomaly": 54.2273,
        "meta_ephemeris_type": 0,
        "meta_classification_type": "U",
        "meta_norad_cat_id": 33960,
        "meta_element_set_no": 999,
        "meta_rev_at_epoch": 88727,
        "meta_bstar": 0.0041778807,
        "meta_mean_motion_dot": 0.00035262,
        "meta_mean_motion_ddot": 0,
        "tle_line1": "1 33960U 97051BV  25337.32449060  .00035262  00000+0  41779-2 0  9998",
        "tle_line2": "2 33960  86.2527 293.9503 0007025  74.7434  54.2273 14.84371452887271"
      },
      "geometry": {
        "type": "Point",
        "coordinates": [
          -62.79032236733515,
          41.96259507279666
        ]
      }
    },
    {
      "type": "Feature",
      "properties": {
        "norad_id": 33966,
        "name": "IRIDIUM 33 DEB",
        "group": "iridium-33-debris",
        "lat": 83.68570590195448,
        "lon": 84.7091565148728,
        "alt_km": 723.0580263726033,
        "timestamp": "2025-12-03T13:52:09.951277+00:00",
        "meta_object_name": "IRIDIUM 33 DEB",
        "meta_object_id": "1997-051CB",
        "meta_epoch": "2025-12-03T05:26:31.518816",
        "meta_mean_motion": 14.49526909,
        "meta_eccentricity": 0.00063695,
        "meta_inclination": 86.3933,
        "meta_ra_of_asc_node": 50.109,
        "meta_arg_of_pericenter": 222.6841,
        "meta_mean_anomaly": 191.0152,
        "meta_ephemeris_type": 0,
        "meta_classification_type": "U",
        "meta_norad_cat_id": 33966,
        "meta_element_set_no": 999,
        "meta_rev_at_epoch": 88304,
        "meta_bstar": 0.00087232157,
        "meta_mean_motion_dot": 3.363e-05,
        "meta_mean_motion_ddot": 0,
        "tle_line1": "1 33966U 97051CB  25337.22675369  .00003363  00000+0  87232-3 0  9998",
        "tle_line2": "2 33966  86.3933  50.1090 0006369 222.6841 191.0152 14.49526909883046"
      },
      "geometry": {
        "type": "Point",
        "coordinates": [
          84.7091565148728,
          83.68570590195448
        ]
      }
    },
    {
      "type": "Feature",
      "properties": {
        "norad_id": 34071,
        "name": "IRIDIUM 33 DEB",
        "group": "iridium-33-debris",
        "lat": 24.23621393043717,
        "lon": -159.83762382004107,
        "alt_km": 720.922944993391,
        "timestamp": "2025-12-03T13:52:09.951287+00:00",
        "meta_object_name": "IRIDIUM 33 DEB",
        "meta_object_id": "1997-051CE",
        "meta_epoch": "2025-12-03T04:52:11.058528",
        "meta_mean_motion": 14.49394143,
        "meta_eccentricity": 0.00094708,
        "meta_inclination": 86.3467,
        "meta_ra_of_asc_node": 21.9734,
        "meta_arg_of_pericenter": 133.4205,
        "meta_mean_anomaly": 226.7789,
        "meta_ephemeris_type": 0,
        "meta_classification_type": "U",
        "meta_norad_cat_id": 34071,
        "meta_element_set_no": 999,
        "meta_rev_at_epoch": 88196,
        "meta_bstar": 0.00088021325,
        "meta_mean_motion_dot": 3.385e-05,
        "meta_mean_motion_ddot": 0,
        "tle_line1": "1 34071U 97051CE  25337.20290577  .00003385  00000+0  88021-3 0  9999",
        "tle_line2": "2 34071  86.3467  21.9734 0009470 133.4205 226.7789 14.49394143881960"
      },
      "geometry": {
        "type": "Point",
        "coordinates": [
          -159.83762382004107,
          24.23621393043717
        ]
      }
    },
    {
      "type": "Feature",
      "properties": {
        "norad_id": 34077,
        "name": "IRIDIUM 33 DEB",
        "group": "iridium-33-debris",
        "lat": -34.35993362168356,
        "lon": -121.98217620725637,
        "alt_km": 691.1748895559149,
        "timestamp": "2025-12-03T13:52:09.951298+00:00",
        "meta_object_name": "IRIDIUM 33 DEB",
        "meta_object_id": "1997-051CL",
        "meta_epoch": "2025-12-03T04:49:49.513728",
        "meta_mean_motion": 14.64572021,
        "meta_eccentricity": 0.00109608,
        "meta_inclination": 86.3873,
        "meta_ra_of_asc_node": 55.7079,
        "meta_arg_of_pericenter": 69.3732,
        "meta_mean_anomaly": 320.4311,
        "meta_ephemeris_type": 0,
        "meta_classification_type": "U",
        "meta_norad_cat_id": 34077,
        "meta_element_set_no": 999,
        "meta_rev_at_epoch": 88193,
        "meta_bstar": 0.0022894081,
        "meta_mean_motion_dot": 0.0001219,
        "meta_mean_motion_ddot": 0,
        "tle_line1": "1 34077U 97051CL  25337.20126752  .00012190  00000+0  22894-2 0  9997",
        "tle_line2": "2 34077  86.3873  55.7079 0010960  69.3732 320.4311 14.64572021881932"
      },
      "geometry": {
        "type": "Point",
        "coordinates": [
          -121.98217620725637,
          -34.35993362168356
        ]
      }
    }
  ]
}